BEIDOU-3 M25            
1 61186U 24168B   26064.44771763 -.00000067  00000+0  00000+0 0  9992
2 61186  54.5648 305.8483 0004268 318.9478 147.1808  1.86230220  9852
BEIDOU-3 M27            
1 61187U 24168C   26064.31689484 -.00000067  00000+0  00000+0 0  9997
2 61187  54.5604 305.8361 0002980  20.4343 132.9740  1.86230358  7324
